H1 CPF  1  SGF 2022  1  8  2  5081 larets    
H2  0304206 5557    27944 2022  1  7  0  0  0 2022  1 12 23 57  0   180 1 1  0 0 0
H9
10 0 59591  53640.00000  0   4870422.671   -381018.430   5089929.763
10 0 59591  53820.00000  0   5698727.156   -799040.780   4087604.913
10 0 59591  54000.00000  0   6308704.449  -1206850.832   2935364.127
10 0 59591  54180.00000  0   6678789.010  -1583605.079   1675512.073
10 0 59591  54360.00000  0   6796761.926  -1909173.829    354274.118
10 0 59591  54540.00000  0   6660165.397  -2165134.942   -979937.360
10 0 59591  54720.00000  0   6276309.172  -2335703.256  -2278343.010
10 0 59591  54900.00000  0   5661871.210  -2408546.593  -3493615.743
10 0 59591  55080.00000  0   4842122.289  -2375447.756  -4581616.156
10 0 59591  55260.00000  0   3849828.087  -2232784.329  -5502976.250
10 0 59591  55440.00000  0   2723885.254  -1981807.967  -6224475.114
10 0 59591  55620.00000  0   1507768.563  -1628714.091  -6720164.217
10 0 59591  55800.00000  0    247854.844  -1184503.652  -6972229.686
10 0 59591  55980.00000  0  -1008318.116   -664645.274  -6971572.124
10 0 59591  56160.00000  0  -2213798.668    -88550.471  -6718105.792
10 0 59591  56340.00000  0  -3323929.455    521127.163  -6220774.654
10 0 59591  56520.00000  0  -4297968.025   1139349.615  -5497285.610
10 0 59591  56700.00000  0  -5100582.853   1739686.689  -4573558.621
10 0 59591  56880.00000  0  -5703174.956   2295417.211  -3482886.309
10 0 59591  57060.00000  0  -6084965.794   2780696.698  -2264806.409
10 0 59591  57240.00000  0  -6233799.255   3171738.935   -963712.838
10 0 59591  57420.00000  0  -6146607.869   3447957.284    372758.713
10 0 59591  57600.00000  0  -5829503.682   3593000.878   1695512.252
10 0 59591  57780.00000  0  -5297473.180   3595624.923   2955858.669
10 0 59591  57960.00000  0  -4573690.986   3450345.351   4107375.921
10 0 59591  58140.00000  0  -3688489.852   3157839.801   5107677.137
10 0 59591  58320.00000  0  -2678044.402   2725075.114   5920003.708
10 0 59591  58500.00000  0  -1582838.365   2165160.585   6514583.216
10 0 59591  58680.00000  0   -445990.593   1496932.256   6869700.783
10 0 59591  58860.00000  0    688475.485    744292.209   6972455.448
10 0 59591  59040.00000  0   1777352.236    -64667.928   6819197.532
10 0 59591  59220.00000  0   2779901.857   -898728.161   6415640.962
10 0 59591  59400.00000  0   3659389.904  -1724753.416   5776651.492
10 0 59591  59580.00000  0   4384449.997  -2509016.948   4925711.712
10 0 59591  59760.00000  0   4930227.226  -3218585.563   3894073.802
10 0 59591  59940.00000  0   5279260.299  -3822714.322   2719623.373
10 0 59591  60120.00000  0   5422061.465  -4294186.391   1445478.874
10 0 59591  60300.00000  0   5357360.504  -4610532.109    118381.663
10 0 59591  60480.00000  0   5092005.007  -4755067.395  -1213057.447
10 0 59591  60660.00000  0   4640521.755  -4717696.257  -2500182.262
10 0 59591  60840.00000  0   4024363.007  -4495435.931  -3696101.850
10 0 59591  61020.00000  0   3270884.033  -4092643.630  -4757406.507
10 0 59591  61200.00000  0   2412110.345  -3520940.184  -5645720.081
10 0 59591  61380.00000  0   1483361.538  -2798844.809  -6329030.861
10 0 59591  61560.00000  0    521802.381  -1951150.130  -6782772.507
10 0 59591  61740.00000  0   -435026.122  -1008059.109  -6990638.123
10 0 59591  61920.00000  0  -1350638.359     -4118.039  -6945108.548
10 0 59591  62100.00000  0  -2190955.843   1023016.030  -6647700.342
10 0 59591  62280.00000  0  -2925544.601   2033943.710  -6108932.081
10 0 59591  62460.00000  0  -3528703.399   2988993.591  -5348009.698
10 0 59591  62640.00000  0  -3980377.752   3849758.101  -4392226.312
10 0 59591  62820.00000  0  -4266864.095   4580643.435  -3276066.362
10 0 59591  63000.00000  0  -4381264.264   5150368.312  -2040028.281
10 0 59591  63180.00000  0  -4323670.484   5533344.534   -729194.908
10 0 59591  63360.00000  0  -4101062.642   5710869.622    608412.736
10 0 59591  63540.00000  0  -3726907.171   5672055.334   1923635.957
10 0 59591  63720.00000  0  -3220473.361   5414435.276   3168053.168
10 0 59591  63900.00000  0  -2605893.764   4944206.571   4295833.841
10 0 59591  64080.00000  0  -1911027.824   4276098.633   5265477.398
10 0 59591  64260.00000  0  -1166192.085   3432879.486   6041368.825
10 0 59591  64440.00000  0   -402821.372   2444524.857   6595086.832
10 0 59591  64620.00000  0    347870.433   1347097.446   6906419.689
10 0 59591  64800.00000  0   1056173.754    181389.809   6964070.589
10 0 59591  64980.00000  0   1695063.335  -1008617.776   6766038.161
10 0 59591  65160.00000  0   2241232.189  -2177431.525   6319672.875
10 0 59591  65340.00000  0   2675947.616  -3279797.055   5641407.245
10 0 59591  65520.00000  0   2985701.129  -4272470.785   4756163.844
10 0 59591  65700.00000  0   3162628.547  -5115942.643   3696454.489
10 0 59591  65880.00000  0   3204687.159  -5776043.324   2501192.467
10 0 59591  66060.00000  0   3115578.943  -6225362.786   1214252.466
10 0 59591  66240.00000  0   2904422.226  -6444408.611   -117167.460
10 0 59591  66420.00000  0   2585193.670  -6422450.416  -1444314.138
10 0 59591  66600.00000  0   2175962.842  -6158003.826  -2718709.917
10 0 59591  66780.00000  0   1697961.704  -5658928.615  -3893954.271
10 0 59591  66960.00000  0   1174539.665  -4942140.848  -4927418.098
10 0 59591  67140.00000  0    630069.509  -4032967.223  -5781757.070
10 0 59591  67320.00000  0     88854.433  -2964190.279  -6426201.868
10 0 59591  67500.00000  0   -425917.457  -1774829.835  -6837592.198
10 0 59591  67680.00000  0   -893129.099   -508714.645  -7001137.330
10 0 59591  67860.00000  0  -1294568.090    787106.077  -6910897.795
10 0 59591  68040.00000  0  -1615615.338   2064062.662  -6569983.857
10 0 59591  68220.00000  0  -1845769.103   3273832.115  -5990473.785
10 0 59591  68400.00000  0  -1978991.336   4370131.619  -5193050.723
10 0 59591  68580.00000  0  -2013864.618   5310487.836  -4206348.659
10 0 59591  68760.00000  0  -1953551.296   6057918.272  -3066005.216
10 0 59591  68940.00000  0  -1805548.279   6582449.198  -1813436.411
10 0 59591  69120.00000  0  -1581245.477   6862401.063   -494363.916
10 0 59591  69300.00000  0  -1295303.421   6885367.442    842860.779
10 0 59591  69480.00000  0   -964875.888   6648828.673   2149075.514
10 0 59591  69660.00000  0   -608715.715   6160337.097   3376188.486
10 0 59591  69840.00000  0   -246214.492   5437268.553   4479011.130
10 0 59591  70020.00000  0    103569.857   4506164.772   5416973.570
10 0 59591  70200.00000  0    422852.044   3401685.908   6155641.406
10 0 59591  70380.00000  0    695972.599   2165251.020   6667971.465
10 0 59591  70560.00000  0    910125.154    843423.188   6935277.892
10 0 59591  70740.00000  0   1055929.808   -513887.533   6947879.783
10 0 59591  70920.00000  0   1127831.043  -1855331.151   6705425.859
10 0 59591  71100.00000  0   1124306.348  -3130077.146   6216894.309
10 0 59591  71280.00000  0   1047878.630  -4289759.893   5500262.562
10 0 59591  71460.00000  0    904934.182  -5290334.635   4581854.107
10 0 59591  71640.00000  0    705358.461  -6093781.867   3495390.121
10 0 59591  71820.00000  0    462001.042  -6669601.166   2280758.745
10 0 59591  72000.00000  0    189991.496  -6996014.666    982538.088
10 0 59591  72180.00000  0    -94059.585  -7060825.535   -351667.912
10 0 59591  72360.00000  0   -372934.819  -6861883.058  -1673022.876
10 0 59591  72540.00000  0   -629708.649  -6407120.490  -2933289.331
10 0 59591  72720.00000  0   -848623.755  -5714183.641  -4086611.751
10 0 59591  72900.00000  0  -1015903.124  -4809674.433  -5091183.266
10 0 59591  73080.00000  0  -1120457.301  -3728055.170  -5910724.919
10 0 59591  73260.00000  0  -1154455.412  -2510281.690  -6515733.072
10 0 59591  73440.00000  0  -1113738.340  -1202228.056  -6884467.555
10 0 59591  73620.00000  0   -998062.060    147031.727  -7003662.681
10 0 59591  73800.00000  0   -811163.568   1487025.381  -6868958.021
10 0 59591  73980.00000  0   -560646.798   2767715.021  -6485048.692
10 0 59591  74160.00000  0   -257692.991   3941317.143  -5865557.043
10 0 59591  74340.00000  0     83401.472   4964066.163  -5032618.221
10 0 59591  74520.00000  0    445846.428   5797863.142  -4016173.783
10 0 59591  74700.00000  0    811118.383   6411752.086  -2852975.928
10 0 59591  74880.00000  0   1159832.992   6783154.150  -1585316.012
10 0 59591  75060.00000  0   1472692.406   6898795.940   -259508.393
10 0 59591  75240.00000  0   1731461.094   6755269.377   1075821.960
10 0 59591  75420.00000  0   1919915.511   6359178.994   2371572.634
10 0 59591  75600.00000  0   2024715.731   5726867.420   3580031.939
10 0 59591  75780.00000  0   2036153.189   4883729.208   4656700.313
10 0 59591  75960.00000  0   1948730.470   3863140.800   5561981.487
10 0 59591  76140.00000  0   1761542.088   2705065.446   6262656.219
10 0 59591  76320.00000  0   1478443.691   1454425.112   6733088.624
10 0 59591  76500.00000  0   1108002.771    159305.066   6956138.080
10 0 59591  76680.00000  0    663234.365  -1130927.213   6923748.321
10 0 59591  76860.00000  0    161132.394  -2367520.876   6637217.867
10 0 59591  77040.00000  0   -377990.170  -3504200.110   6107139.045
10 0 59591  77220.00000  0   -931324.455  -4498910.722   5353004.185
10 0 59591  77400.00000  0  -1474519.679  -5315392.699   4402505.018
10 0 59591  77580.00000  0  -1982742.767  -5924542.102   3290539.619
10 0 59591  77760.00000  0  -2431797.032  -6305494.542   2057931.553
10 0 59591  77940.00000  0  -2799244.773  -6446370.786    749913.242
10 0 59591  78120.00000  0  -3065475.981  -6344653.591   -585568.040
10 0 59591  78300.00000  0  -3214668.558  -6007176.123  -1899650.758
10 0 59591  78480.00000  0  -3235592.868  -5449722.385  -3144386.612
10 0 59591  78660.00000  0  -3122219.500  -4696263.604  -4274512.938
10 0 59591  78840.00000  0  -2874100.181  -3777878.189  -5249090.042
10 0 59591  79020.00000  0  -2496512.379  -2731424.181  -6032941.570
99
